SKYTERRA 1              
1 37218U 10061A   18196.40443368 -.00000132  00000-0  00000-0 0  9993
2 37218   2.7470 337.0343 0002346 172.5824 187.8333  1.00271288 28192
ZHONGXING-20A           
1 37234U 10064A   18196.86648546 -.00000357  00000-0  00000-0 0  9998
2 37234   0.0787 258.5664 0001091 177.1609 299.8184  1.00265716 28022
HYLAS 1                 
1 37237U 10065A   18197.39984677 -.00000253  00000-0  00000+0 0  9993
2 37237   0.0331 312.5398 0002564  65.5835  26.5045  1.00270633 28005
INTELSAT 17 (IS-17)     
1 37238U 10065B   18197.13246892 -.00000021  00000-0  00000+0 0  9999
2 37238   0.0347 245.6252 0002656 235.3553 286.6189  1.00271995 27913
EUTELSAT KA-SAT 9A      
1 37258U 10069A   18196.16121363  .00000044  00000-0  00000+0 0  9996
2 37258   0.0170  18.6960 0003094  88.2088 253.1291  1.00269599 27806
HISPASAT 1E             
1 37264U 10070A   18196.18002648 -.00000234  00000-0  00000-0 0  9994
2 37264   0.0367 111.2048 0005182  14.7701 201.7892  1.00270334 24165
KOREASAT 6              
1 37265U 10070B   18196.92711575 -.00000381  00000-0  00000-0 0  9996
2 37265   0.0152  63.9040 0001689  18.0186 301.5493  1.00272030 27765
INTELSAT NEW DAWN       
1 37392U 11016A   18197.39493740  .00000136  00000-0  00000+0 0  9997
2 37392   0.0211 159.8901 0001354 212.0155  97.2243  1.00271799 26519
YAHSAT 1A               
1 37393U 11016B   18196.88660368  .00000082  00000-0  00000-0 0  9994
2 37393   0.0181  49.7677 0001981  80.5731 175.0013  1.00271177 13399
TELSTAR 14R             
1 37602U 11021A   18197.47654617 -.00000300  00000-0  00000+0 0  9992
2 37602   0.0246 333.2204 0002349 106.3624 323.2111  1.00271393 26781
GSAT-8                  
1 37605U 11022A   18197.13440111  .00000066  00000-0  00000+0 0  9999
2 37605   0.1097 276.5200 0002768  23.4339  97.3535  1.00273292 26230
ST-2                    
1 37606U 11022B   18197.00411609 -.00000230  00000-0  00000+0 0  9990
2 37606   0.0154  89.7334 0001313  60.8321 232.7016  1.00270506 26231
CHINASAT 10 (ZX 10)     
1 37677U 11026A   18196.89259902 -.00000371  00000-0  00000+0 0  9990
2 37677   0.0502 233.9570 0004103 288.1953 203.3435  1.00268464 25965
TIANLIAN 1-02           
1 37737U 11032A   18196.79899932  .00000008  00000-0  00000-0 0  9993
2 37737   2.7891  74.4302 0001821 171.4549 152.1594  1.00268207 25706
GSAT-12                 
1 37746U 11034A   18197.07000324 -.00000184  00000-0  00000+0 0  9991
2 37746   0.0561 250.9227 0011556 193.7712 317.3661  1.00271359 25941
SES-3                   
1 37748U 11035A   18197.45769889 -.00000121  00000-0  00000+0 0  9995
2 37748   0.0102  26.1531 0002140  86.7811 243.0603  1.00271177 25696
KAZSAT-2                
1 37749U 11035B   18197.49555927 -.00000217  00000-0  00000+0 0  9992
2 37749   0.0410 143.2736 0001753  22.5308  33.3480  1.00270235 25568
ASTRA 1N                
1 37775U 11041A   18197.22132632  .00000100  00000-0  00000+0 0  9993
2 37775   0.0391  24.9159 0004742  46.1833 321.7502  1.00272606 25399
BSAT-3C (JCSAT-110R)    
1 37776U 11041B   18196.84167028 -.00000370  00000-0  00000+0 0  9998
2 37776   0.0176 328.6481 0000340 267.4042 110.5392  1.00271477 25513
PAKSAT-1R               
1 37779U 11042A   18196.83970542  .00000135  00000-0  00000+0 0  9992
2 37779   0.0449 180.5455 0004382 270.2901 183.0512  1.00272301 25269
CHINASAT 1A (ZX 1A)     
1 37804U 11047A   18196.86648546 -.00000357  00000-0  00000+0 0  9992
2 37804   0.0500 131.4748 0001042 137.9398 106.0043  1.00268037 25079
COSMOS 2473             
1 37806U 11048A   18196.22366060 -.00000126  00000-0  00000-0 0  9998
2 37806   0.0580 103.5929 0002644  16.0461 240.3721  1.00269034 25014
SES-2                   
1 37809U 11049A   18197.19979880 -.00000215  00000-0  00000+0 0  9997
2 37809   0.0176 332.2372 0002499 132.2280 174.4381  1.00271549 25001
ARABSAT-5C              
1 37810U 11049B   18197.22132632  .00000104  00000-0  00000+0 0  9995
2 37810   0.0599 358.9628 0003178 124.0159 270.6982  1.00273476 24905
EUTELSAT 7 WEST A       
1 37816U 11051A   18196.20650019 -.00000078  00000-0  00000-0 0  9997
2 37816   0.0636  37.0458 0005253 108.0569 214.9168  1.00271849 24888
QUETZSAT 1              
1 37826U 11054A   18197.19493684 -.00000261  00000-0  00000+0 0  9996
2 37826   0.0132  23.6716 0002825  95.0524 168.4201  1.00271536 25083
INTELSAT 18 (IS-18)     
1 37834U 11056A   18197.51854887  .00000033  00000-0  00000+0 0  9995
2 37834   0.0180  55.5436 0001786  55.4950 189.9183  1.00272189 24841
EUTELSAT 16A            
1 37836U 11057A   18196.89702311  .00000085  00000-0  00000-0 0  9990
2 37836   0.0707  37.6195 0005193  75.4059 159.5657  1.00273163 16987
VIASAT-1                
1 37843U 11059A   18197.35921123 -.00000043  00000-0  00000+0 0  9990
2 37843   0.0228  49.1139 0002005  61.8878 197.3486  1.00269099 25260
ASIASAT 7               
1 37933U 11069A   18197.15092809 -.00000353  00000-0  00000+0 0  9993
2 37933   0.0533 266.4500 0001402 190.6877 356.6182  1.00269375 24455
LUCH 5A                 
1 37951U 11074B   18196.93723512 -.00000065  00000-0  00000-0 0  9997
2 37951   1.9029 147.3356 0002523 298.2263 352.5012  1.00272572 24179
NIGCOMSAT 1R            
1 38014U 11077A   18196.84066501  .00000126  00000-0  00000-0 0  9996
2 38014   0.0271 218.5910 0003029 169.2911 250.8544  1.00270368 23940
FENGYUN 2F              
1 38049U 12002A   18197.11378808 -.00000378  00000-0  00000+0 0  9999
2 38049   2.5210  78.0426 0003924 199.8671 169.1201  1.00266573 23883
SES-4                   
1 38087U 12007A   18197.40211490 -.00000188  00000-0  00000+0 0  9990
2 38087   0.0138  27.1773 0002398  96.7706 292.9859  1.00270497 23485
BEIDOU 11               
1 38091U 12008A   18197.48997617  .00000036  00000-0  00000+0 0  9997
2 38091   1.4798  63.4014 0002978 305.9506 160.0297  1.00275558 23478
INTELSAT 22 (IS-22)     
1 38098U 12011A   18196.98370219 -.00000078  00000-0  00000+0 0  9992
2 38098   0.0185  60.8769 0002715  54.0851 245.0495  1.00273388 23048
APSTAR 7                
1 38107U 12013A   18196.91917728 -.00000121  00000-0  00000-0 0  9990
2 38107   0.0178  51.4970 0002563  67.9926 221.6101  1.00271953 23150
YAHSAT 1B               
1 38245U 12016A   18197.05156530  .00000107  00000-0  00000+0 0  9990
2 38245   0.0121  39.9469 0001538  53.8104 266.2603  1.00270245 22916
JCSAT-13                
1 38331U 12023A   18196.83998536 -.00000375  00000-0  00000+0 0  9997
2 38331   0.0122   5.6322 0001848 109.6883 244.6986  1.00270030 22566
VINASAT-2               
1 38332U 12023B   18197.50454455 -.00000349  00000-0  00000+0 0  9991
2 38332   0.0191 323.8425 0001606 145.4570 138.4555  1.00271410 22605
NIMIQ 6                 
1 38342U 12026A   18197.43586835 -.00000193  00000-0  00000+0 0  9992
2 38342   0.0168 327.5184 0002274 118.0136 274.4766  1.00272048 22590
CHINASAT 2A (ZX 2A)     
1 38352U 12028A   18196.92353907 -.00000312  00000-0  00000-0 0  9994
2 38352   0.0497 126.1071 0000847  18.1776 220.1570  1.00269697 22360
INTELSAT 19 (IS-19)     
1 38356U 12030A   18196.72363541 -.00000076  00000-0  00000+0 0  9990
2 38356   0.0171  45.9282 0002776  67.0035 247.0814  1.00271236 22506
ECHOSTAR 17             
1 38551U 12035A   18196.48291167 -.00000094  00000-0  00000+0 0  9999
2 38551   0.0228  47.6227 0002082  63.1384 249.2612  1.00269586 22110
METEOSAT-10 (MSG-3)     
1 38552U 12035B   18197.12446406  .00000043  00000-0  00000+0 0  9993
2 38552   1.0750 347.0611 0002243  93.1586 267.8754  1.00269229 22209
SES-5                   
1 38652U 12036A   18197.14236234  .00000014  00000-0  00000+0 0  9991
2 38652   0.0404 230.3263 0001643 230.5056 249.3101  1.00271124 22055
TIANLIAN 1-03           
1 38730U 12040A   18196.15703271  .00000054  00000-0  00000-0 0  9998
2 38730   0.1248 254.2090 0006342 226.4468 239.3918  1.00271870 19727
INTELSAT 20 (IS-20)     
1 38740U 12043A   18196.99364137 -.00000044  00000-0  00000+0 0  9997
2 38740   0.0109  73.3313 0001193 123.3481 163.2998  1.00272285 21828
HYLAS 2                 
1 38741U 12043B   18197.09752736  .00000135  00000-0  00000+0 0  9996
2 38741   0.0449 245.2703 0001454 227.1386 247.5895  1.00271480 21846
INTELSAT 21 (IS-21)     
1 38749U 12045A   18196.34685446 -.00000303  00000-0  00000+0 0  9994
2 38749   0.0125 351.2573 0001844 121.6078 247.1389  1.00271642 21627
ASTRA 2F                
1 38778U 12051A   18197.10540944  .00000130  00000-0  00000+0 0  9998
2 38778   0.0800 239.6543 0002211 304.9196 175.4070  1.00271878 21284
GSAT-10                 
1 38779U 12051B   18196.95355995 -.00000184  00000-0  00000+0 0  9991
2 38779   0.0106  45.2310 0003126  36.1566 278.6478  1.00270997 21287
INTELSAT 23 (IS-23)     
1 38867U 12057A   18196.33303733 -.00000303  00000-0  00000-0 0  9994
2 38867   0.0087 342.4369 0001456 127.8500 249.7288  1.00270016 20985
BEIDOU 16               
1 38953U 12059A   18196.75674328 -.00000196  00000-0  00000+0 0  9998
2 38953   1.9170  81.1106 0000945  65.2147 143.7199  1.00272065 21031
LUCH 5B                 
1 38977U 12061A   18196.44563326 -.00000151  00000-0  00000+0 0  9999
2 38977   4.3252  72.0007 0003476 343.9981  21.4596  1.00273148 21168
YAMAL 300K              
1 38978U 12061B   18197.23741897  .00000051  00000-0  00000+0 0  9997
2 38978   0.0177  92.9923 0000979 140.6051 328.8272  1.00271136 20867
STAR ONE C3             
1 38991U 12062A   18197.46328199 -.00000269  00000-0  00000+0 0  9996
2 38991   0.0174  50.5091 0001791  60.4106 275.0904  1.00271471 20854
EUTELSAT 21B            
1 38992U 12062B   18196.12645519  .00000112  00000-0  00000-0 0  9994
2 38992   0.0642  25.0814 0002820  89.2242 245.7090  1.00273258 20843
ECHOSTAR 16             
1 39008U 12065A   18196.35661789 -.00000300  00000-0  00000-0 0  9998
2 39008   0.0234  54.7442 0002128  55.1594 250.1194  1.00270871 20616
